CCSDS_OMM_VERS = 2.0
CREATION_DATE  = 
ORIGINATOR     = 

OBJECT_NAME    = SL-14 R/B
OBJECT_ID      = 1991-042B
CENTER_NAME    = EARTH
REF_FRAME      = TEME
TIME_SYSTEM    = UTC
MEAN_ELEMENT_THEORY = SGP/SGP4

EPOCH          = 2026-02-10T00:06:19.947456
MEAN_MOTION    = 14.81802498
ECCENTRICITY   = .0016478
INCLINATION    = 82.4898
RA_OF_ASC_NODE = 246.1496
ARG_OF_PERICENTER = 336.9902
MEAN_ANOMALY   = 23.0572

EPHEMERIS_TYPE = 0
CLASSIFICATION_TYPE = U
NORAD_CAT_ID   = 21423
ELEMENT_SET_NO = 999
REV_AT_EPOCH   = 84897
BSTAR          = .49957E-4
MEAN_MOTION_DOT = .418E-5
MEAN_MOTION_DDOT = 0

CCSDS_OMM_VERS = 2.0
CREATION_DATE  = 
ORIGINATOR     = 

OBJECT_NAME    = ERS-1
OBJECT_ID      = 1991-050A
CENTER_NAME    = EARTH
REF_FRAME      = TEME
TIME_SYSTEM    = UTC
MEAN_ELEMENT_THEORY = SGP/SGP4

EPOCH          = 2026-02-10T00:45:44.653248
MEAN_MOTION    = 14.39426435
ECCENTRICITY   = .0030926
INCLINATION    = 98.7895
RA_OF_ASC_NODE = 58.5708
ARG_OF_PERICENTER = 284.8640
MEAN_ANOMALY   = 74.9122

EPHEMERIS_TYPE = 0
CLASSIFICATION_TYPE = U
NORAD_CAT_ID   = 21574
ELEMENT_SET_NO = 999
REV_AT_EPOCH   = 81175
BSTAR          = .13494E-3
MEAN_MOTION_DOT = .376E-5
MEAN_MOTION_DDOT = 0

CCSDS_OMM_VERS = 2.0
CREATION_DATE  = 
ORIGINATOR     = 

OBJECT_NAME    = ARIANE 40 R/B
OBJECT_ID      = 1991-050F
CENTER_NAME    = EARTH
REF_FRAME      = TEME
TIME_SYSTEM    = UTC
MEAN_ELEMENT_THEORY = SGP/SGP4

EPOCH          = 2026-02-10T03:33:48.626208
MEAN_MOTION    = 14.42872943
ECCENTRICITY   = .000385
INCLINATION    = 98.2073
RA_OF_ASC_NODE = 94.4107
ARG_OF_PERICENTER = 142.0267
MEAN_ANOMALY   = 218.1195

EPHEMERIS_TYPE = 0
CLASSIFICATION_TYPE = U
NORAD_CAT_ID   = 21610
ELEMENT_SET_NO = 999
REV_AT_EPOCH   = 81502
BSTAR          = .11033E-3
MEAN_MOTION_DOT = .327E-5
MEAN_MOTION_DDOT = 0

CCSDS_OMM_VERS = 2.0
CREATION_DATE  = 
ORIGINATOR     = 

OBJECT_NAME    = INTERCOSMOS 25
OBJECT_ID      = 1991-086A
CENTER_NAME    = EARTH
REF_FRAME      = TEME
TIME_SYSTEM    = UTC
MEAN_ELEMENT_THEORY = SGP/SGP4

EPOCH          = 2026-02-09T20:01:27.166080
MEAN_MOTION    = 12.11921745
ECCENTRICITY   = .14867987
INCLINATION    = 82.6085
RA_OF_ASC_NODE = 326.8406
ARG_OF_PERICENTER = 176.9407
MEAN_ANOMALY   = 184.2164

EPHEMERIS_TYPE = 0
CLASSIFICATION_TYPE = U
NORAD_CAT_ID   = 21819
ELEMENT_SET_NO = 999
REV_AT_EPOCH   = 49331
BSTAR          = .2851499E-3
MEAN_MOTION_DOT = .1469E-4
MEAN_MOTION_DDOT = 0

CCSDS_OMM_VERS = 2.0
CREATION_DATE  = 
ORIGINATOR     = 

OBJECT_NAME    = SL-8 R/B
OBJECT_ID      = 1992-008B
CENTER_NAME    = EARTH
REF_FRAME      = TEME
TIME_SYSTEM    = UTC
MEAN_ELEMENT_THEORY = SGP/SGP4

EPOCH          = 2026-02-10T04:08:21.370848
MEAN_MOTION    = 13.75969671
ECCENTRICITY   = .0033898
INCLINATION    = 82.9261
RA_OF_ASC_NODE = 288.2494
ARG_OF_PERICENTER = 209.8245
MEAN_ANOMALY   = 262.8425

EPHEMERIS_TYPE = 0
CLASSIFICATION_TYPE = U
NORAD_CAT_ID   = 21876
ELEMENT_SET_NO = 999
REV_AT_EPOCH   = 70563
BSTAR          = .17236E-4
MEAN_MOTION_DOT = .32E-6
MEAN_MOTION_DDOT = 0

CCSDS_OMM_VERS = 2.0
CREATION_DATE  = 
ORIGINATOR     = 

OBJECT_NAME    = SL-8 R/B
OBJECT_ID      = 1992-020B
CENTER_NAME    = EARTH
REF_FRAME      = TEME
TIME_SYSTEM    = UTC
MEAN_ELEMENT_THEORY = SGP/SGP4

EPOCH          = 2026-02-09T20:14:01.464864
MEAN_MOTION    = 13.75545470
ECCENTRICITY   = .0029237
INCLINATION    = 82.9332
RA_OF_ASC_NODE = 174.4303
ARG_OF_PERICENTER = 18.1406
MEAN_ANOMALY   = 92.5423

EPHEMERIS_TYPE = 0
CLASSIFICATION_TYPE = U
NORAD_CAT_ID   = 21938
ELEMENT_SET_NO = 999
REV_AT_EPOCH   = 69730
BSTAR          = .12904572E-3
MEAN_MOTION_DOT = .14E-5
MEAN_MOTION_DDOT = 0

CCSDS_OMM_VERS = 2.0
CREATION_DATE  = 
ORIGINATOR     = 

OBJECT_NAME    = USA 81
OBJECT_ID      = 1992-023A
CENTER_NAME    = EARTH
REF_FRAME      = TEME
TIME_SYSTEM    = UTC
MEAN_ELEMENT_THEORY = SGP/SGP4

EPOCH          = 2026-02-09T18:51:04.792896
MEAN_MOTION    = 14.32357730
ECCENTRICITY   = .00026429
INCLINATION    = 85.0120
RA_OF_ASC_NODE = 147.5310
ARG_OF_PERICENTER = 102.6528
MEAN_ANOMALY   = 257.4960

EPHEMERIS_TYPE = 0
CLASSIFICATION_TYPE = U
NORAD_CAT_ID   = 21949
ELEMENT_SET_NO = 999
REV_AT_EPOCH   = 9079
BSTAR          = .83030597E-4
MEAN_MOTION_DOT = .244E-5
MEAN_MOTION_DDOT = 0

CCSDS_OMM_VERS = 2.0
CREATION_DATE  = 
ORIGINATOR     = 

OBJECT_NAME    = COSMOS 2219
OBJECT_ID      = 1992-076A
CENTER_NAME    = EARTH
REF_FRAME      = TEME
TIME_SYSTEM    = UTC
MEAN_ELEMENT_THEORY = SGP/SGP4

EPOCH          = 2026-02-10T03:29:06.488736
MEAN_MOTION    = 14.14076485
ECCENTRICITY   = .0020261
INCLINATION    = 71.0582
RA_OF_ASC_NODE = 75.6526
ARG_OF_PERICENTER = 244.7960
MEAN_ANOMALY   = 115.1061

EPHEMERIS_TYPE = 0
CLASSIFICATION_TYPE = U
NORAD_CAT_ID   = 22219
ELEMENT_SET_NO = 999
REV_AT_EPOCH   = 71448
BSTAR          = -.58837E-5
MEAN_MOTION_DOT = -.58E-6
MEAN_MOTION_DDOT = 0

CCSDS_OMM_VERS = 2.0
CREATION_DATE  = 
ORIGINATOR     = 

OBJECT_NAME    = SL-16 R/B
OBJECT_ID      = 1992-076B
CENTER_NAME    = EARTH
REF_FRAME      = TEME
TIME_SYSTEM    = UTC
MEAN_ELEMENT_THEORY = SGP/SGP4

EPOCH          = 2026-02-10T00:59:29.640192
MEAN_MOTION    = 14.16855968
ECCENTRICITY   = .0011439
INCLINATION    = 70.9978
RA_OF_ASC_NODE = 246.6150
ARG_OF_PERICENTER = 145.9399
MEAN_ANOMALY   = 16.5666

EPHEMERIS_TYPE = 0
CLASSIFICATION_TYPE = U
NORAD_CAT_ID   = 22220
ELEMENT_SET_NO = 999
REV_AT_EPOCH   = 71791
BSTAR          = .18616E-4
MEAN_MOTION_DOT = -.11E-6
MEAN_MOTION_DDOT = 0

CCSDS_OMM_VERS = 2.0
CREATION_DATE  = 
ORIGINATOR     = 

OBJECT_NAME    = COSMOS 2221
OBJECT_ID      = 1992-080A
CENTER_NAME    = EARTH
REF_FRAME      = TEME
TIME_SYSTEM    = UTC
MEAN_ELEMENT_THEORY = SGP/SGP4

EPOCH          = 2026-02-10T03:35:23.023392
MEAN_MOTION    = 14.96091613
ECCENTRICITY   = .0012868
INCLINATION    = 82.5054
RA_OF_ASC_NODE = 305.4570
ARG_OF_PERICENTER = 288.2288
MEAN_ANOMALY   = 71.7533

EPHEMERIS_TYPE = 0
CLASSIFICATION_TYPE = U
NORAD_CAT_ID   = 22236
ELEMENT_SET_NO = 999
REV_AT_EPOCH   = 77667
BSTAR          = .20282E-3
MEAN_MOTION_DOT = .2308E-4
MEAN_MOTION_DDOT = 0

CCSDS_OMM_VERS = 2.0
CREATION_DATE  = 
ORIGINATOR     = 

OBJECT_NAME    = SL-16 R/B
OBJECT_ID      = 1992-093B
CENTER_NAME    = EARTH
REF_FRAME      = TEME
TIME_SYSTEM    = UTC
MEAN_ELEMENT_THEORY = SGP/SGP4

EPOCH          = 2026-02-10T02:34:43.671360
MEAN_MOTION    = 14.15441053
ECCENTRICITY   = .0005175
INCLINATION    = 71.0200
RA_OF_ASC_NODE = 62.1698
ARG_OF_PERICENTER = 322.8520
MEAN_ANOMALY   = 37.2245

EPHEMERIS_TYPE = 0
CLASSIFICATION_TYPE = U
NORAD_CAT_ID   = 22285
ELEMENT_SET_NO = 999
REV_AT_EPOCH   = 70925
BSTAR          = .20552E-4
MEAN_MOTION_DOT = -.7E-7
MEAN_MOTION_DDOT = 0

CCSDS_OMM_VERS = 2.0
CREATION_DATE  = 
ORIGINATOR     = 

OBJECT_NAME    = COSMOS 2228
OBJECT_ID      = 1992-094A
CENTER_NAME    = EARTH
REF_FRAME      = TEME
TIME_SYSTEM    = UTC
MEAN_ELEMENT_THEORY = SGP/SGP4

EPOCH          = 2026-02-10T02:48:37.442592
MEAN_MOTION    = 14.97062598
ECCENTRICITY   = .0018978
INCLINATION    = 82.5157
RA_OF_ASC_NODE = 263.7138
ARG_OF_PERICENTER = 38.4670
MEAN_ANOMALY   = 321.7901

EPHEMERIS_TYPE = 0
CLASSIFICATION_TYPE = U
NORAD_CAT_ID   = 22286
ELEMENT_SET_NO = 999
REV_AT_EPOCH   = 77193
BSTAR          = .14979E-3
MEAN_MOTION_DOT = .1758E-4
MEAN_MOTION_DDOT = 0

