SL-14 R/B               
1 21423U 91042B   26041.00439754  .00000418  00000+0  49957-4 0  9993
2 21423  82.4898 246.1496 0016478 336.9902  23.0572 14.81802498848973
ERS-1                   
1 21574U 91050A   26041.03176682  .00000376  00000+0  13494-3 0  9999
2 21574  98.7895  58.5708 0030926 284.8640  74.9122 14.39426435811750
ARIANE 40 R/B           
1 21610U 91050F   26041.14847947  .00000327  00000+0  11033-3 0  9994
2 21610  98.2073  94.4107 0003850 142.0267 218.1195 14.42872943815021
INTERCOSMOS 25          
1 21819U 91086A   26040.83434220  .00001469  00000+0  28515-3 0  9996
2 21819  82.6085 326.8406 1486798 176.9407 184.2164 12.11921745493317
SL-8 R/B                
1 21876U 92008B   26041.17246957  .00000032  00000+0  17236-4 0  9994
2 21876  82.9261 288.2494 0033898 209.8245 262.8425 13.75969671705636
SL-8 R/B                
1 21938U 92020B   26040.84307251  .00000140  00000+0  12905-3 0  9992
2 21938  82.9332 174.4303 0029237  18.1406  92.5423 13.75545470697308
USA 81                  
1 21949U 92023A   26040.78547214  .00000244  00000+0  83031-4 0  9999
2 21949  85.0120 147.5310 0002642 102.6528 257.4960 14.32357730 90795
COSMOS 2219             
1 22219U 92076A   26041.14521399 -.00000058  00000+0 -58837-5 0  9997
2 22219  71.0582  75.6526 0020261 244.7960 115.1061 14.14076485714484
SL-16 R/B               
1 22220U 92076B   26041.04131528 -.00000011  00000+0  18616-4 0  9997
2 22220  70.9978 246.6150 0011439 145.9399  16.5666 14.16855968717910
COSMOS 2221             
1 22236U 92080A   26041.14957203  .00002308  00000+0  20282-3 0  9997
2 22236  82.5054 305.4570 0012868 288.2288  71.7533 14.96091613776677
SL-16 R/B               
1 22285U 92093B   26041.10744990 -.00000007  00000+0  20552-4 0  9994
2 22285  71.0200  62.1698 0005175 322.8520  37.2245 14.15441053709257
COSMOS 2228             
1 22286U 92094A   26041.11710003  .00001758  00000+0  14979-3 0  9993
2 22286  82.5157 263.7138 0018978  38.4670 321.7901 14.97062598771932
